NORAD_CAT_ID,OBJECT_NAME,OBJECT_TYPE,EPOCH,MEAN_MOTION,ECCENTRICITY,INCLINATION,RA_OF_ASC_NODE,ARG_OF_PERICENTER,MEAN_ANOMALY,BSTAR,MEAN_MOTION_DOT,MEAN_MOTION_DDOT,TLE_LINE0,TLE_LINE1,TLE_LINE2,SEMIMAJOR_AXIS,PERIOD,APOGEE,PERIGEE,DECAYED
52605.0,STARLINK-4000,PAYLOAD,2023-10-19 04:13:33,15.08851365,0.0001517,53.2178,240.9855,91.0652,269.0514,0.0007056,0.00010963,0.0,0 STARLINK-4000,1 52605U 22052H   23292.17608578  .00010963  00000-0  70560-3 0  9999,2 52605  53.2178 240.9855 0001517  91.0652 269.0514 15.08851365 79438,6917.846,95.437,540.76,538.661,0.0
52605.0,STARLINK-4000,PAYLOAD,2023-10-19 05:48:57,15.0885118,0.0001732,53.2173,240.6878,93.0311,267.088,0.00091602,0.00014325,0.0,0 STARLINK-4000,1 52605U 22052H   23292.24232657  .00014325  00000-0  91602-3 0  9994,2 52605  53.2173 240.6878 0001732  93.0311 267.0880 15.08851180 79077,6917.846,95.437,540.909,538.513,0.0
52605.0,STARLINK-4000,PAYLOAD,2023-10-20 02:28:57,15.08849653,0.0001517,53.2171,236.8228,90.9343,269.1823,0.00038657,5.871e-05,0.0,0 STARLINK-4000,1 52605U 22052H   23293.10344512  .00005871  00000-0  38657-3 0  9991,2 52605  53.2171 236.8228 0001517  90.9343 269.1823 15.08849653 79570,6917.851,95.437,540.765,538.666,0.0
52605.0,STARLINK-4000,PAYLOAD,2023-10-20 05:39:43,15.0885293,0.0001512,53.2167,236.2278,89.7502,270.3663,0.00044767,6.846e-05,0.0,0 STARLINK-4000,1 52605U 22052H   23293.23592363  .00006846  00000-0  44767-3 0  9996,2 52605  53.2167 236.2278 0001512  89.7502 270.3663 15.08852930 79222,6917.841,95.437,540.752,538.66,0.0
52605.0,STARLINK-4000,PAYLOAD,2023-10-21 02:19:45,15.08834711,0.0001915,53.2182,232.3574,102.0387,258.082,0.00014489,2.018e-05,0.0,0 STARLINK-4000,1 52605U 22052H   23294.09705167  .00002018  00000-0  14489-3 0  9994,2 52605  53.2182 232.3574 0001915 102.0387 258.0820 15.08834711 79722,6917.897,95.438,541.086,538.437,0.0
52605.0,STARLINK-4000,PAYLOAD,2023-10-21 13:27:27,15.08843208,0.0001867,53.2184,230.2782,99.2556,260.8647,0.00031993,4.808e-05,0.0,0 STARLINK-4000,1 52605U 22052H   23294.56073070  .00004808  00000-0  31993-3 0  9995,2 52605  53.2184 230.2782 0001867  99.2556 260.8647 15.08843208 79429,6917.871,95.437,541.027,538.444,0.0
52605.0,STARLINK-4000,PAYLOAD,2023-10-21 22:59:45,15.08852074,0.0001625,53.2169,228.4941,102.8429,257.2745,0.00058132,8.979e-05,0.0,0 STARLINK-4000,1 52605U 22052H   23294.95816798  .00008979  00000-0  58132-3 0  9997,2 52605  53.2169 228.4941 0001625 102.8429 257.2745 15.08852074 79486,6917.843,95.437,540.833,538.584,0.0
52605.0,STARLINK-4000,PAYLOAD,2023-10-22 02:10:31,15.08851194,0.0001514,53.2163,227.8993,104.9464,255.1696,0.00052044,8.007e-05,0.0,0 STARLINK-4000,1 52605U 22052H   23295.09064756  .00008007  00000-0  52044-3 0  9990,2 52605  53.2163 227.8993 0001514 104.9464 255.1696 15.08851194 79876,6917.846,95.437,540.759,538.664,0.0
52605.0,STARLINK-4000,PAYLOAD,2023-10-22 05:21:18,15.08851943,0.0001484,53.2164,227.3048,105.4668,254.6488,0.00046959,7.196e-05,0.0,0 STARLINK-4000,1 52605U 22052H   23295.22312648  .00007196  00000-0  46959-3 0  9997,2 52605  53.2164 227.3048 0001484 105.4668 254.6488 15.08851943 79528,6917.844,95.437,540.735,538.682,0.0
52605.0,STARLINK-4000,PAYLOAD,2023-10-22 22:50:33,15.08830336,0.0001363,53.2166,224.0334,103.5533,256.5611,-4.197e-05,-9.56e-06,0.0,0 STARLINK-4000,1 52605U 22052H   23295.95177629 -.00000956  00000-0 -41970-4 0  9993,2 52605  53.2166 224.0334 0001363 103.5533 256.5611 15.08830336 79632,6917.91,95.438,540.718,538.832,0.0
52605.0,STARLINK-4000,PAYLOAD,2023-10-23 00:25:56,15.08830261,0.000153,53.2165,223.7366,104.9654,255.1508,-3.3372e-05,-8.19e-06,0.0,0 STARLINK-4000,1 52605U 22052H   23296.01801671 -.00000819  00000-0 -33372-4 0  9997,2 52605  53.2165 223.7366 0001530 104.9654 255.1508 15.08830261 80018,6917.91,95.438,540.834,538.717,0.0
52605.0,STARLINK-4000,PAYLOAD,2023-10-23 22:41:20,15.08847643,0.0001303,53.2166,219.5728,103.0293,257.0845,0.00044659,6.828e-05,0.0,0 STARLINK-4000,1 52605U 22052H   23296.94537573  .00006828  00000-0  44659-3 0  9999,2 52605  53.2166 219.5728 0001303 103.0293 257.0845 15.08847643 79780,6917.857,95.437,540.623,538.821,0.0
52605.0,STARLINK-4000,PAYLOAD,2023-10-24 01:52:06,15.08857953,0.0001349,53.2169,218.9807,84.2005,275.9141,0.00090405,0.00014136,0.0,0 STARLINK-4000,1 52605U 22052H   23297.07785580  .00014136  00000-0  90405-3 0  9998,2 52605  53.2169 218.9807 0001349  84.2005 275.9141 15.08857953 80173,6917.826,95.436,540.624,538.757,0.0
52605.0,STARLINK-4000,PAYLOAD,2023-10-24 11:24:25,15.08858434,0.0001254,53.2161,217.1928,78.7253,281.388,0.00043161,6.591e-05,0.0,0 STARLINK-4000,1 52605U 22052H   23297.47529263  .00006591  00000-0  43161-3 0  9999,2 52605  53.2161 217.1928 0001254  78.7253 281.3880 15.08858434 79868,6917.824,95.436,540.557,538.822,0.0
52605.0,STARLINK-4000,PAYLOAD,2023-10-25 03:18:16,15.08860895,0.0001501,53.2178,214.2249,105.7417,254.374,0.00066253,0.00010278,0.0,0 STARLINK-4000,1 52605U 22052H   23298.13768876  .00010278  00000-0  66253-3 0  9992,2 52605  53.2178 214.2249 0001501 105.7417 254.3740 15.08860895 80331,6917.817,95.436,540.72,538.643,0.0
52605.0,STARLINK-4000,PAYLOAD,2023-10-26 03:09:03,15.08843097,0.0001399,53.2172,209.7631,99.7892,260.3259,0.00021477,3.132e-05,0.0,0 STARLINK-4000,1 52605U 22052H   23299.13129278  .00003132  00000-0  21477-3 0  9990,2 52605  53.2172 209.7631 0001399  99.7892 260.3259 15.08843097 80486,6917.871,95.437,540.704,538.768,0.0
52605.0,STARLINK-4000,PAYLOAD,2023-10-26 04:44:26,15.08842474,0.0001202,53.2168,209.4653,96.0005,264.1124,0.00028446,4.243e-05,0.0,0 STARLINK-4000,1 52605U 22052H   23299.19753233  .00004243  00000-0  28446-3 0  9997,2 52605  53.2168 209.4653 0001202  96.0005 264.1124 15.08842474 80123,6917.873,95.437,540.569,538.906,0.0
52605.0,STARLINK-4000,PAYLOAD,2023-10-27 10:56:46,15.0884702,0.0001461,53.2169,203.8158,88.3454,271.7706,0.00039547,6.013e-05,0.0,0 STARLINK-4000,1 52605U 22052H   23300.45608995  .00006013  00000-0  39547-3 0  9994,2 52605  53.2169 203.8158 0001461  88.3454 271.7706 15.08847020 80684,6917.859,95.437,540.735,538.713,0.0
52605.0,STARLINK-4000,PAYLOAD,2023-10-28 10:47:32,15.0884729,0.0001587,53.2159,199.356,86.2216,273.8957,-0.00012996,-2.356e-05,0.0,0 STARLINK-4000,1 52605U 22052H   23301.44968337 -.00002356  00000-0 -12996-3 0  9990,2 52605  53.2159 199.3560 0001587  86.2216 273.8957 15.08847290 80838,6917.858,95.437,540.821,538.625,0.0
52605.0,STARLINK-4000,PAYLOAD,2023-10-28 21:55:14,15.08835488,0.000138,53.2165,197.2754,89.8657,270.2493,-0.00011055,-2.047e-05,0.0,0 STARLINK-4000,1 52605U 22052H   23301.91336729 -.00002047  00000-0 -11055-3 0  9998,2 52605  53.2165 197.2754 0001380  89.8657 270.2493 15.08835488 80535,6917.894,95.438,540.714,538.805,0.0
52605.0,STARLINK-4000,PAYLOAD,2023-10-29 10:38:20,15.08833696,0.0002119,53.2178,194.8949,90.011,270.1125,0.00048696,7.469e-05,0.0,0 STARLINK-4000,1 52605U 22052H   23302.44329480  .00007469  00000-0  48696-3 0  9995,2 52605  53.2178 194.8949 0002119  90.0110 270.1125 15.08833696 80986,6917.9,95.438,541.231,538.299,0.0
52605.0,STARLINK-4000,PAYLOAD,2023-10-29 21:46:02,15.08845249,0.0001437,53.2162,192.8136,98.1446,261.9709,0.00096237,0.00015063,0.0,0 STARLINK-4000,1 52605U 22052H   23302.90697385  .00015063  00000-0  96237-3 0  9991,2 52605  53.2162 192.8136 0001437  98.1446 261.9709 15.08845249 80688,6917.864,95.437,540.723,538.735,0.0
52605.0,STARLINK-4000,PAYLOAD,2023-10-29 23:21:25,15.08848337,0.0001461,53.2163,192.5168,93.558,266.558,0.00095928,0.00015015,0.0,0 STARLINK-4000,1 52605U 22052H   23302.97321358  .00015015  00000-0  95928-3 0  9995,2 52605  53.2163 192.5168 0001461  93.5580 266.5580 15.08848337 81068,6917.855,95.437,540.731,538.709,0.0
52605.0,STARLINK-4000,PAYLOAD,2023-10-30 20:01:27,15.08840946,0.0001267,53.2164,188.6493,84.7278,275.3859,0.0011454,0.00017988,0.0,0 STARLINK-4000,1 52605U 22052H   23303.83434114  .00017988  00000-0  11454-2 0  9998,2 52605  53.2164 188.6493 0001267  84.7278 275.3859 15.08840946 81195,6917.877,95.437,540.619,538.866,0.0
52605.0,STARLINK-4000,PAYLOAD,2023-10-31 02:22:59,15.08859435,0.0001798,53.2164,187.4604,76.5666,283.5527,0.0015491,0.00024465,0.0,0 STARLINK-4000,1 52605U 22052H   23304.09930019  .00024465  00000-0  15491-2 0  9995,2 52605  53.2164 187.4604 0001798  76.5666 283.5527 15.08859435 81236,6917.821,95.436,540.93,538.442,0.0
52605.0,STARLINK-4000,PAYLOAD,2023-10-31 19:52:14,15.08847998,0.0001442,53.2168,184.1902,74.4857,285.6294,0.0010019,0.00015697,0.0,0 STARLINK-4000,1 52605U 22052H   23304.82794436  .00015697  00000-0  10019-2 0  9995,2 52605  53.2168 184.1902 0001442  74.4857 285.6294 15.08847998 81347,6917.856,95.437,540.718,538.723,0.0
52605.0,STARLINK-4000,PAYLOAD,2023-10-31 23:03:00,15.08853904,0.0001401,53.2165,183.5955,80.0866,280.0284,0.001086,0.00017044,0.0,0 STARLINK-4000,1 52605U 22052H   23304.96042278  .00017044  00000-0  10860-2 0  9992,2 52605  53.2165 183.5955 0001401  80.0866 280.0284 15.08853904 80995,6917.838,95.437,540.672,538.734,0.0
52605.0,STARLINK-4000,PAYLOAD,2023-11-01 08:35:19,15.0885468,0.0001448,53.2164,181.8116,73.1238,286.9913,0.0007363,0.00011454,0.0,0 STARLINK-4000,1 52605U 22052H   23305.35786067  .00011454  00000-0  73630-3 0  9991,2 52605  53.2164 181.8116 0001448  73.1238 286.9913 15.08854680 81055,6917.836,95.437,540.702,538.699,0.0
52605.0,STARLINK-4000,PAYLOAD,2023-11-01 19:43:00,15.08851509,0.0001591,53.2171,179.7308,102.8189,257.2981,0.00053504,8.24e-05,0.0,0 STARLINK-4000,1 52605U 22052H   23305.82153935  .00008240  00000-0  53504-3 0  9992,2 52605  53.2171 179.7308 0001591 102.8189 257.2981 15.08851509 81497,6917.845,95.437,540.811,538.61,0.0
52605.0,STARLINK-4000,PAYLOAD,2023-11-01 22:53:47,15.0885667,0.0001455,53.2168,179.1357,96.9883,263.1275,0.00071111,0.00011053,0.0,0 STARLINK-4000,1 52605U 22052H   23305.95401767  .00011053  00000-0  71111-3 0  9995,2 52605  53.2168 179.1357 0001455  96.9883 263.1275 15.08856670 81142,6917.829,95.437,540.701,538.688,0.0
